{"features":[{"geometry":{"coordinates":[[[-5.9483403,39.9315721],[-5.9483564,39.9315721],[-5.9483537,39.9315824],[-5.9483403,39.9315721]]],"type":"Polygon"},"id":1,"properties":{"area_m2":1.258,"centroid_lonlat":[-5.9483501,39.9315748],"id":1,"reason":"too_small"},"type":"Feature"},{"geometry":{"coordinates":[[[-5.9511861,39.9315618],[-5.9511942,39.931568],[-5.9511861,39.9315742],[-5.9511781,39.931568],[-5.9511861,39.9315618]]],"type":"Polygon"},"id":2,"properties":{"area_m2":1.048,"centroid_lonlat":[-5.9511861,39.931568],"id":2,"reason":"too_small"},"type":"Feature"},{"geometry":{"coordinates":[[[-5.9514034,39.9315269],[-5.9514087,39.9315269],[-5.9514061,39.9315289],[-5.9514034,39.9315269]]],"type":"Polygon"},"id":3,"properties":{"area_m2":0.21,"centroid_lonlat":[-5.9514061,39.9315269],"id":3,"reason":"too_small"},"type":"Feature"},{"geometry":{"coordinates":[[[-5.9506604,39.9313232],[-5.9506685,39.9313294],[-5.9506604,39.9313356],[-5.9506524,39.9313294],[-5.9506604,39.9313232]]],"type":"Polygon"},"id":4,"properties":{"area_m2":1.048,"centroid_lonlat":[-5.9506604,39.9313294],"id":4,"reason":"too_small"},"type":"Feature"},{"geometry":{"coordinates":[[[-5.9487668,39.9313232],[-5.9487748,39.9313294],[-5.9487668,39.9313356],[-5.9487587,39.9313294],[-5.9487668,39.9313232]]],"type":"Polygon"},"id":5,"properties":{"area_m2":1.048,"centroid_lonlat":[-5.9487668,39.9313294],"id":5,"reason":"too_small"},"type":"Feature"},{"geometry":{"coordinates":[[[-5.950824,39.9313088],[-5.9508294,39.9313088],[-5.9508267,39.9313109],[-5.950824,39.9313088]]],"type":"Polygon"},"id":6,"properties":{"area_m2":0.21,"centroid_lonlat":[-5.9508267,39.9313088],"id":6,"reason":"too_small"},"type":"Feature"},{"geometry":{"coordinates":[[[-5.9517708,39.9312327],[-5.9517789,39.9312389],[-5.9517708,39.9312451],[-5.9517628,39.9312389],[-5.9517708,39.9312327]]],"type":"Polygon"},"id":7,"properties":{"area_m2":1.048,"centroid_lonlat":[-5.9517708,39.9312389],"id":7,"reason":"too_small"},"type":"Feature"},{"geometry":{"coordinates":[[[-5.9516904,39.9312327],[-5.9516984,39.9312389],[-5.9516904,39.9312451],[-5.9516823,39.9312389],[-5.9516904,39.9312327]]],"type":"Polygon"},"id":8,"properties":{"area_m2":1.048,"centroid_lonlat":[-5.9516904,39.9312389],"id":8,"reason":"too_small"},"type":"Feature"},{"geometry":{"coordinates":[[[-5.9508535,39.9312163],[-5.9508616,39.9312225],[-5.9508589,39.9312369],[-5.9508508,39.9312348],[-5.9508535,39.9312163]]],"type":"Polygon"},"id":9,"properties":{"area_m2":1.678,"centroid_lonlat":[-5.9508555,39.9312276],"id":9,"reason":"too_small"},"type":"Feature"},{"geometry":{"coordinates":[[[-5.9496599,39.9312348],[-5.9496653,39.9312266],[-5.9496626,39.9312369],[-5.9496599,39.9312348]]],"type":"Polygon"},"id":10,"properties":{"area_m2":0.629,"centroid_lonlat":[-5.9496626,39.9312307],"id":10,"reason":"too_small"},"type":"Feature"},{"geometry":{"coordinates":[[[-5.948571,39.9312348],[-5.9485763,39.9312225],[-5.9485736,39.9312369],[-5.948571,39.9312348]]],"type":"Polygon"},"id":11,"properties":{"area_m2":0.839,"centroid_lonlat":[-5.9485736,39.9312286],"id":11,"reason":"too_small"},"type":"Feature"},{"geometry":{"coordinates":[[[-5.9506282,39.9312163],[-5.9506416,39.9312266],[-5.9506389,39.9312286],[-5.9506202,39.9312266],[-5.9506282,39.9312163]]],"type":"Polygon"},"id":12,"properties":{"area_m2":1.678,"centroid_lonlat":[-5.9506296,39.931224],"id":12,"reason":"too_small"},"type":"Feature"},{"geometry":{"coordinates":[[[-5.9504727,39.931171],[-5.950478,39.9311793],[-5.9504914,39.9311813],[-5.9504834,39.9311875],[-5.95047,39.9311813],[-5.9504727,39.931171]]],"type":"Polygon"},"id":13,"properties":{"area_m2":1.678,"centroid_lonlat":[-5.9504787,39.9311808],"id":13,"reason":"too_small"},"type":"Feature"},{"geometry":{"coordinates":[[[-5.9485817,39.9310867],[-5.9485871,39.9310867],[-5.9485844,39.9310888],[-5.9485817,39.9310867]]],"type":"Polygon"},"id":14,"properties":{"area_m2":0.21,"centroid_lonlat":[-5.9485844,39.9310867],"id":14,"reason":"too_small"},"type":"Feature"},{"geometry":{"coordinates":[[[-5.9482786,39.9310847],[-5.9482893,39.9310805],[-5.948292,39.9310826],[-5.9482786,39.9310847]]],"type":"Polygon"},"id":15,"properties":{"area_m2":0.629,"centroid_lonlat":[-5.948284,39.9310826],"id":15,"reason":"too_small"},"type":"Feature"},{"geometry":{"coordinates":[[[-5.9491745,39.93106],[-5.9491825,39.9310661],[-5.9491745,39.9310723],[-5.9491664,39.9310661],[-5.9491745,39.93106]]],"type":"Polygon"},"id":16,"properties":{"area_m2":1.048,"centroid_lonlat":[-5.9491745,39.9310661],"id":16,"reason":"too_small"},"type":"Feature"},{"geometry":{"coordinates":[[[-5.949491,39.931023],[-5.949499,39.9310291],[-5.949491,39.9310353],[-5.9494829,39.9310291],[-5.949491,39.931023]]],"type":"Polygon"},"id":17,"properties":{"area_m2":1.048,"centroid_lonlat":[-5.949491,39.9310291],"id":17,"reason":"too_small"},"type":"Feature"},{"geometry":{"coordinates":[[[-5.9502473,39.9309983],[-5.9502554,39.9310044],[-5.9502473,39.9310106],[-5.9502393,39.9310044],[-5.9502473,39.9309983]]],"type":"Polygon"},"id":18,"properties":{"area_m2":1.048,"centroid_lonlat":[-5.9502473,39.9310044],"id":18,"reason":"too_small"},"type":"Feature"},{"geometry":{"coordinates":[[[-5.9483457,39.9310003],[-5.948351,39.9310003],[-5.9483483,39.9310024],[-5.9483457,39.9310003]]],"type":"Polygon"},"id":19,"properties":{"area_m2":0.21,"centroid_lonlat":[-5.9483483,39.9310003],"id":19,"reason":"too_small"},"type":"Feature"},{"geometry":{"coordinates":[[[-5.949896,39.9309345],[-5.9499013,39.9309345],[-5.9498987,39.9309366],[-5.949896,39.9309345]]],"type":"Polygon"},"id":20,"properties":{"area_m2":0.21,"centroid_lonlat":[-5.9498987,39.9309345],"id":20,"reason":"too_small"},"type":"Feature"},{"geometry":{"coordinates":[[[-5.9498397,39.930916],[-5.9498477,39.9309222],[-5.949845,39.9309325],[-5.9498316,39.9309222],[-5.9498397,39.930916]]],"type":"Polygon"},"id":21,"properties":{"area_m2":1.468,"centroid_lonlat":[-5.9498412,39.9309239],"id":21,"reason":"too_small"},"type":"Feature"},{"geometry":{"coordinates":[[[-5.9492227,39.9309119],[-5.9492308,39.9309181],[-5.9492227,39.9309242],[-5.9492147,39.9309181],[-5.9492227,39.9309119]]],"type":"Polygon"},"id":22,"properties":{"area_m2":1.048,"centroid_lonlat":[-5.9492227,39.9309181],"id":22,"reason":"too_small"},"type":"Feature"},{"geometry":{"coordinates":[[[-5.9492549,39.9308831],[-5.9492683,39.9308893],[-5.9492603,39.9308954],[-5.9492469,39.9308893],[-5.9492549,39.9308831]]],"type":"Polygon"},"id":23,"properties":{"area_m2":1.678,"centroid_lonlat":[-5.9492576,39.9308893],"id":23,"reason":"too_small"},"type":"Feature"},{"geometry":{"coordinates":[[[-5.9499174,39.9307782],[-5.9499228,39.9307659],[-5.9499201,39.9307803],[-5.9499174,39.9307782]]],"type":"Polygon"},"id":24,"properties":{"area_m2":0.839,"centroid_lonlat":[-5.9499201,39.930772],"id":24,"reason":"too_small"},"type":"Feature"},{"geometry":{"coordinates":[[[-5.9491691,39.9307432],[-5.9491771,39.9307494],[-5.9491691,39.9307556],[-5.9491611,39.9307494],[-5.9491691,39.9307432]]],"type":"Polygon"},"id":25,"properties":{"area_m2":1.048,"centroid_lonlat":[-5.9491691,39.9307494],"id":25,"reason":"too_small"},"type":"Feature"},{"geometry":{"coordinates":[[[-5.9512022,39.930735],[-5.9512049,39.9307412],[-5.9511968,39.9307432],[-5.9511942,39.9307412],[-5.9512022,39.930735]]],"type":"Polygon"},"id":26,"properties":{"area_m2":0.629,"centroid_lonlat":[-5.9512004,39.9307398],"id":26,"reason":"too_small"},"type":"Feature"},{"geometry":{"coordinates":[[[-5.9509581,39.9306959],[-5.9509635,39.9306959],[-5.9509608,39.930698],[-5.9509581,39.9306959]]],"type":"Polygon"},"id":27,"properties":{"area_m2":0.21,"centroid_lonlat":[-5.9509608,39.9306959],"id":27,"reason":"too_small"},"type":"Feature"},{"geometry":{"coordinates":[[[-5.9490296,39.9305787],[-5.9490377,39.9305849],[-5.9490296,39.930591],[-5.9490216,39.9305849],[-5.9490296,39.9305787]]],"type":"Polygon"},"id":28,"properties":{"area_m2":1.048,"centroid_lonlat":[-5.9490296,39.9305849],"id":28,"reason":"too_small"},"type":"Feature"},{"geometry":{"coordinates":[[[-5.951795,39.9305807],[-5.9518003,39.9305807],[-5.9517977,39.9305828],[-5.951795,39.9305807]]],"type":"Polygon"},"id":29,"properties":{"area_m2":0.21,"centroid_lonlat":[-5.9517977,39.9305807],"id":29,"reason":"too_small"},"type":"Feature"},{"geometry":{"coordinates":[[[-5.9484529,39.9305807],[-5.9484583,39.9305725],[-5.9484556,39.9305828],[-5.9484529,39.9305807]]],"type":"Polygon"},"id":30,"properties":{"area_m2":0.629,"centroid_lonlat":[-5.9484556,39.9305766],"id":30,"reason":"too_small"},"type":"Feature"},{"geometry":{"coordinates":[[[-5.9490001,39.9304985],[-5.9490055,39.9304902],[-5.9490028,39.9305005],[-5.9490001,39.9304985]]],"type":"Polygon"},"id":31,"properties":{"area_m2":0.629,"centroid_lonlat":[-5.9490028,39.9304944],"id":31,"reason":"too_small"},"type":"Feature"},{"geometry":{"coordinates":[[[-5.9492442,39.9304347],[-5.9492522,39.9304409],[-5.9492442,39.9304471],[-5.9492362,39.9304409],[-5.9492442,39.9304347]]],"type":"Polygon"},"id":32,"properties":{"area_m2":1.048,"centroid_lonlat":[-5.9492442,39.9304409],"id":32,"reason":"too_small"},"type":"Feature"},{"geometry":{"coordinates":[[[-5.9503117,39.9303895],[-5.9503198,39.9303997],[-5.950301,39.9304018],[-5.9502983,39.9303997],[-5.9503117,39.9303895]]],"type":"Polygon"},"id":33,"properties":{"area_m2":1.678,"centroid_lonlat":[-5.9503104,39.9303972],"id":33,"reason":"too_small"},"type":"Feature"},{"geometry":{"coordinates":[[[-5.9505773,39.9303298],[-5.9505826,39.9303298],[-5.9505799,39.9303319],[-5.9505773,39.9303298]]],"type":"Polygon"},"id":34,"properties":{"area_m2":0.21,"centroid_lonlat":[-5.9505799,39.9303298],"id":34,"reason":"too_small"},"type":"Feature"},{"geometry":{"coordinates":[[[-5.9499255,39.9303236],[-5.9499335,39.9303298],[-5.9499255,39.930336],[-5.9499174,39.9303298],[-5.9499255,39.9303236]]],"type":"Polygon"},"id":35,"properties":{"area_m2":1.048,"centroid_lonlat":[-5.9499255,39.9303298],"id":35,"reason":"too_small"},"type":"Feature"},{"geometry":{"coordinates":[[[-5.9482223,39.9303298],[-5.948233,39.9303298],[-5.9482303,39.930336],[-5.9482223,39.9303298]]],"type":"Polygon"},"id":36,"properties":{"area_m2":0.629,"centroid_lonlat":[-5.9482285,39.9303312],"id":36,"reason":"too_small"},"type":"Feature"},{"geometry":{"coordinates":[[[-5.9482625,39.9302578],[-5.9482759,39.9302681],[-5.9482679,39.9302743],[-5.9482545,39.930264],[-5.9482625,39.9302578]]],"type":"Polygon"},"id":37,"properties":{"area_m2":1.678,"centroid_lonlat":[-5.9482652,39.9302661],"id":37,"reason":"too_small"},"type":"Feature"},{"geometry":{"coordinates":[[[-5.9517092,39.9302599],[-5.9517145,39.9302517],[-5.9517118,39.9302619],[-5.9517092,39.9302599]]],"type":"Polygon"},"id":38,"properties":{"area_m2":0.629,"centroid_lonlat":[-5.9517118,39.9302558],"id":38,"reason":"too_small"},"type":"Feature"},{"geometry":{"coordinates":[[[-5.9514409,39.930227],[-5.9514463,39.930227],[-5.9514436,39.930229],[-5.9514409,39.930227]]],"type":"Polygon"},"id":39,"properties":{"area_m2":0.21,"centroid_lonlat":[-5.9514436,39.930227],"id":39,"reason":"too_small"},"type":"Feature"},{"geometry":{"coordinates":[[[-5.9491959,39.9300151],[-5.949204,39.9300213],[-5.9491959,39.9300275],[-5.9491879,39.9300213],[-5.9491959,39.9300151]]],"type":"Polygon"},"id":40,"properties":{"area_m2":1.048,"centroid_lonlat":[-5.9491959,39.9300213],"id":40,"reason":"too_small"},"type":"Feature"},{"geometry":{"coordinates":[[[-5.949837,39.9300048],[-5.9498423,39.9300048],[-5.9498397,39.9300069],[-5.949837,39.9300048]]],"type":"Polygon"},"id":41,"properties":{"area_m2":0.21,"centroid_lonlat":[-5.9498397,39.9300048],"id":41,"reason":"too_small"},"type":"Feature"},{"geometry":{"coordinates":[[[-5.9504324,39.9300007],[-5.9504378,39.9300007],[-5.9504351,39.9300028],[-5.9504324,39.9300007]]],"type":"Polygon"},"id":42,"properties":{"area_m2":0.21,"centroid_lonlat":[-5.9504351,39.9300007],"id":42,"reason":"too_small"},"type":"Feature"},{"geometry":{"coordinates":[[[-5.9501481,39.9299185],[-5.9501535,39.9299185],[-5.9501508,39.9299205],[-5.9501481,39.9299185]]],"type":"Polygon"},"id":43,"properties":{"area_m2":0.21,"centroid_lonlat":[-5.9501508,39.9299185],"id":43,"reason":"too_small"},"type":"Feature"},{"geometry":{"coordinates":[[[-5.951111,39.9297724],[-5.9511191,39.9297786],[-5.951111,39.9297848],[-5.951103,39.9297786],[-5.951111,39.9297724]]],"type":"Polygon"},"id":44,"properties":{"area_m2":1.048,"centroid_lonlat":[-5.951111,39.9297786],"id":44,"reason":"too_small"},"type":"Feature"},{"geometry":{"coordinates":[[[-5.9485629,39.9297313],[-5.948571,39.9297375],[-5.9485629,39.9297436],[-5.9485549,39.9297375],[-5.9485629,39.9297313]]],"type":"Polygon"},"id":45,"properties":{"area_m2":1.048,"centroid_lonlat":[-5.9485629,39.9297375],"id":45,"reason":"too_small"},"type":"Feature"},{"geometry":{"coordinates":[[[-5.9496197,39.9297066],[-5.9496278,39.9297128],[-5.9496197,39.929719],[-5.9496117,39.9297128],[-5.9496197,39.9297066]]],"type":"Polygon"},"id":46,"properties":{"area_m2":1.048,"centroid_lonlat":[-5.9496197,39.9297128],"id":46,"reason":"too_small"},"type":"Feature"},{"geometry":{"coordinates":[[[-5.9493676,39.9296161],[-5.9493703,39.9296223],[-5.9493622,39.9296243],[-5.9493595,39.9296223],[-5.9493676,39.9296161]]],"type":"Polygon"},"id":47,"properties":{"area_m2":0.629,"centroid_lonlat":[-5.9493658,39.9296209],"id":47,"reason":"too_small"},"type":"Feature"},{"geometry":{"coordinates":[[[-5.9514436,39.9295997],[-5.9514517,39.9296058],[-5.9514436,39.929612],[-5.9514356,39.9296058],[-5.9514436,39.9295997]]],"type":"Polygon"},"id":48,"properties":{"area_m2":1.048,"centroid_lonlat":[-5.9514436,39.9296058],"id":48,"reason":"too_small"},"type":"Feature"},{"geometry":{"coordinates":[[[-5.9514007,39.9295709],[-5.9514141,39.9295811],[-5.9514061,39.9295873],[-5.9513927,39.929577],[-5.9514007,39.9295709]]],"type":"Polygon"},"id":49,"properties":{"area_m2":1.678,"centroid_lonlat":[-5.9514034,39.9295791],"id":49,"reason":"too_small"},"type":"Feature"},{"geometry":{"coordinates":[[[-5.9505263,39.9295667],[-5.9505343,39.9295729],[-5.9505263,39.9295791],[-5.9505183,39.9295729],[-5.9505263,39.9295667]]],"type":"Polygon"},"id":50,"properties":{"area_m2":1.048,"centroid_lonlat":[-5.9505263,39.9295729],"id":50,"reason":"too_small"},"type":"Feature"},{"geometry":{"coordinates":[[[-5.9513739,39.9295215],[-5.9513819,39.9295277],[-5.9513739,39.929538],[-5.9513658,39.9295318],[-5.9513739,39.9295215]]],"type":"Polygon"},"id":51,"properties":{"area_m2":1.678,"centroid_lonlat":[-5.9513739,39.9295297],"id":51,"reason":"too_small"},"type":"Feature"},{"geometry":{"coordinates":[[[-5.9516126,39.9294824],[-5.951618,39.9294824],[-5.9516153,39.9294845],[-5.9516126,39.9294824]]],"type":"Polygon"},"id":52,"properties":{"area_m2":0.21,"centroid_lonlat":[-5.9516153,39.9294824],"id":52,"reason":"too_small"},"type":"Feature"},{"geometry":{"coordinates":[[[-5.9506389,39.9294639],[-5.950647,39.9294701],[-5.9506389,39.9294762],[-5.9506309,39.9294701],[-5.9506389,39.9294639]]],"type":"Polygon"},"id":53,"properties":{"area_m2":1.048,"centroid_lonlat":[-5.9506389,39.9294701],"id":53,"reason":"too_small"},"type":"Feature"},{"geometry":{"coordinates":[[[-5.9486273,39.9294598],[-5.9486353,39.929466],[-5.9486273,39.9294721],[-5.9486192,39.929466],[-5.9486273,39.9294598]]],"type":"Polygon"},"id":54,"properties":{"area_m2":1.048,"centroid_lonlat":[-5.9486273,39.929466],"id":54,"reason":"too_small"},"type":"Feature"},{"geometry":{"coordinates":[[[-5.9490591,39.9292973],[-5.9490645,39.9292973],[-5.9490618,39.9292994],[-5.9490591,39.9292973]]],"type":"Polygon"},"id":55,"properties":{"area_m2":0.21,"centroid_lonlat":[-5.9490618,39.9292973],"id":55,"reason":"too_small"},"type":"Feature"},{"geometry":{"coordinates":[[[-5.9490913,39.9292521],[-5.9490967,39.9292479],[-5.949094,39.9292541],[-5.9490913,39.9292521]]],"type":"Polygon"},"id":56,"properties":{"area_m2":0.419,"centroid_lonlat":[-5.949094,39.92925],"id":56,"reason":"too_small"},"type":"Feature"},{"geometry":{"coordinates":[[[-5.9495097,39.9291945],[-5.9495151,39.9291945],[-5.9495124,39.9291965],[-5.9495097,39.9291945]]],"type":"Polygon"},"id":57,"properties":{"area_m2":0.21,"centroid_lonlat":[-5.9495124,39.9291945],"id":57,"reason":"too_small"},"type":"Feature"},{"geometry":{"coordinates":[[[-5.9509608,39.929143],[-5.9509635,39.9291574],[-5.9509555,39.9291595],[-5.9509474,39.9291533],[-5.9509608,39.929143]]],"type":"Polygon"},"id":58,"properties":{"area_m2":1.678,"centroid_lonlat":[-5.9509575,39.9291523],"id":58,"reason":"too_small"},"type":"Feature"},{"geometry":{"coordinates":[[[-5.9516206,39.9291348],[-5.9516287,39.929141],[-5.9516099,39.9291513],[-5.9516072,39.9291492],[-5.9516206,39.9291348]]],"type":"Polygon"},"id":59,"properties":{"area_m2":1.678,"centroid_lonlat":[-5.951618,39.9291436],"id":59,"reason":"too_small"},"type":"Feature"},{"geometry":{"coordinates":[[[-5.9505907,39.9291225],[-5.9506041,39.9291328],[-5.950596,39.9291389],[-5.9505826,39.9291286],[-5.9505907,39.9291225]]],"type":"Polygon"},"id":60,"properties":{"area_m2":1.678,"centroid_lonlat":[-5.9505934,39.9291307],"id":60,"reason":"too_small"},"type":"Feature"},{"geometry":{"coordinates":[[[-5.9487265,39.9291328],[-5.9487319,39.9291328],[-5.9487292,39.9291348],[-5.9487265,39.9291328]]],"type":"Polygon"},"id":61,"properties":{"area_m2":0.21,"centroid_lonlat":[-5.9487292,39.9291328],"id":61,"reason":"too_small"},"type":"Feature"},{"geometry":{"coordinates":[[[-5.9483591,39.9291266],[-5.9483671,39.9291286],[-5.9483644,39.9291389],[-5.9483564,39.9291369],[-5.9483591,39.9291266]]],"type":"Polygon"},"id":62,"properties":{"area_m2":1.258,"centroid_lonlat":[-5.9483618,39.9291328],"id":62,"reason":"too_small"},"type":"Feature"},{"geometry":{"coordinates":[[[-5.9488446,39.9290875],[-5.9488499,39.9290875],[-5.9488472,39.9290896],[-5.9488446,39.9290875]]],"type":"Polygon"},"id":63,"properties":{"area_m2":0.21,"centroid_lonlat":[-5.9488472,39.9290875],"id":63,"reason":"too_small"},"type":"Feature"},{"geometry":{"coordinates":[[[-5.9504995,39.9290608],[-5.9505075,39.9290669],[-5.9504995,39.9290731],[-5.9504914,39.9290669],[-5.9504995,39.9290608]]],"type":"Polygon"},"id":64,"properties":{"area_m2":1.048,"centroid_lonlat":[-5.9504995,39.9290669],"id":64,"reason":"too_small"},"type":"Feature"},{"geometry":{"coordinates":[[[-5.9489894,39.9290587],[-5.9490055,39.9290587],[-5.9490028,39.929069],[-5.9489894,39.9290587]]],"type":"Polygon"},"id":65,"properties":{"area_m2":1.258,"centroid_lonlat":[-5.9489992,39.9290615],"id":65,"reason":"too_small"},"type":"Feature"},{"geometry":{"coordinates":[[[-5.9499362,39.9289538],[-5.9499443,39.92896],[-5.9499362,39.9289662],[-5.9499282,39.92896],[-5.9499362,39.9289538]]],"type":"Polygon"},"id":66,"properties":{"area_m2":1.048,"centroid_lonlat":[-5.9499362,39.92896],"id":66,"reason":"too_small"},"type":"Feature"},{"geometry":{"coordinates":[[[-5.9500408,39.9289435],[-5.9500462,39.9289435],[-5.9500435,39.9289456],[-5.9500408,39.9289435]]],"type":"Polygon"},"id":67,"properties":{"area_m2":0.21,"centroid_lonlat":[-5.9500435,39.9289435],"id":67,"reason":"too_small"},"type":"Feature"},{"geometry":{"coordinates":[[[-5.9495553,39.9289415],[-5.9495607,39.9289374],[-5.9495634,39.9289394],[-5.9495553,39.9289415]]],"type":"Polygon"},"id":68,"properties":{"area_m2":0.419,"centroid_lonlat":[-5.949558,39.9289394],"id":68,"reason":"too_small"},"type":"Feature"},{"geometry":{"coordinates":[[[-5.9515402,39.928851],[-5.9515482,39.9288571],[-5.9515402,39.9288633],[-5.9515321,39.9288571],[-5.9515402,39.928851]]],"type":"Polygon"},"id":69,"properties":{"area_m2":1.048,"centroid_lonlat":[-5.9515402,39.9288571],"id":69,"reason":"too_small"},"type":"Feature"},{"geometry":{"coordinates":[[[-5.9503198,39.928853],[-5.9503251,39.928853],[-5.9503224,39.9288551],[-5.9503198,39.928853]]],"type":"Polygon"},"id":70,"properties":{"area_m2":0.21,"centroid_lonlat":[-5.9503224,39.928853],"id":70,"reason":"too_small"},"type":"Feature"},{"geometry":{"coordinates":[[[-5.9497806,39.9288386],[-5.949786,39.9288345],[-5.9497887,39.9288366],[-5.9497806,39.9288386]]],"type":"Polygon"},"id":71,"properties":{"area_m2":0.419,"centroid_lonlat":[-5.9497833,39.9288366],"id":71,"reason":"too_small"},"type":"Feature"},{"geometry":{"coordinates":[[[-5.9494588,39.9287893],[-5.9494668,39.9287954],[-5.9494534,39.9288057],[-5.9494454,39.9287996],[-5.9494588,39.9287893]]],"type":"Polygon"},"id":72,"properties":{"area_m2":1.678,"centroid_lonlat":[-5.9494561,39.9287975],"id":72,"reason":"too_small"},"type":"Feature"},{"geometry":{"coordinates":[[[-5.9506282,39.9286576],[-5.9506363,39.9286638],[-5.9506229,39.9286741],[-5.9506148,39.9286679],[-5.9506282,39.9286576]]],"type":"Polygon"},"id":73,"properties":{"area_m2":1.678,"centroid_lonlat":[-5.9506255,39.9286659],"id":73,"reason":"too_small"},"type":"Feature"},{"geometry":{"coordinates":[[[-5.950655,39.9286412],[-5.9506631,39.9286473],[-5.950655,39.9286535],[-5.950647,39.9286473],[-5.950655,39.9286412]]],"type":"Polygon"},"id":74,"properties":{"area_m2":1.048,"centroid_lonlat":[-5.950655,39.9286473],"id":74,"reason":"too_small"},"type":"Feature"},{"geometry":{"coordinates":[[[-5.9516796,39.928419],[-5.9516877,39.9284252],[-5.9516796,39.9284355],[-5.9516716,39.9284293],[-5.9516796,39.928419]]],"type":"Polygon"},"id":75,"properties":{"area_m2":1.678,"centroid_lonlat":[-5.9516796,39.9284273],"id":75,"reason":"too_small"},"type":"Feature"},{"geometry":{"coordinates":[[[-5.9517065,39.9283944],[-5.9517145,39.9284005],[-5.9517011,39.9284108],[-5.9516931,39.9284046],[-5.9517065,39.9283944]]],"type":"Polygon"},"id":76,"properties":{"area_m2":1.678,"centroid_lonlat":[-5.9517038,39.9284026],"id":76,"reason":"too_small"},"type":"Feature"}],"type":"FeatureCollection"}